start=new Date('2022-05-29T00:00:00.000Z').valueOf();
sats=[{"RA_OF_ASC_NODE":"25.3147","TLE_LINE1":"1 44968U 20001BG  22148.88204723  .00001677  00000-0  13143-3 0  9991","OBJECT_NAME":"STARLINK-1090","MEAN_MOTION_DDOT":"0.0000000000000","ECCENTRICITY":"0.00014900","MEAN_MOTION":"15.06406375","LAUNCH_DATE":"2020-01-07","PERIOD":"95.592","SITE":"AFETR","OBJECT_TYPE":"PAYLOAD","PERIAPSIS":"546.162","EPHEMERIS_TYPE":"0","APOAPSIS":"548.226","COUNTRY_CODE":"US","TLE_LINE2":"2 44968  53.0561  25.3147 0001490  61.3566 298.7573 15.06406375132291","CENTER_NAME":"EARTH","NORAD_CAT_ID":"44968","CLASSIFICATION_TYPE":"U","ELEMENT_SET_NO":"999","EPOCH":"2022-05-28T21:10:08.880672","BSTAR":"0.00013143000000","MEAN_ELEMENT_THEORY":"SGP4","SEMIMAJOR_AXIS":"6925.329","OBJECT_ID":"2020-001BG","INCLINATION":"53.0561","TIME_SYSTEM":"UTC","MEAN_ANOMALY":"298.7573","MEAN_MOTION_DOT":"0.00001677","REV_AT_EPOCH":"13229","DECAY_DATE":null,"RCS_SIZE":"LARGE","REF_FRAME":"TEME","ARG_OF_PERICENTER":"61.3566","FILE":"3469840","GP_ID":"204802908"},{"LAUNCH_DATE":"2020-01-07","PERIOD":"95.592","RA_OF_ASC_NODE":"25.3436","TLE_LINE1":"1 44969U 20001BH  22148.87467289  .00001449  00000-0  11615-3 0  9998","MEAN_MOTION_DDOT":"0.0000000000000","ECCENTRICITY":"0.00015340","OBJECT_NAME":"STARLINK-1092","MEAN_MOTION":"15.06405928","CENTER_NAME":"EARTH","NORAD_CAT_ID":"44969","CLASSIFICATION_TYPE":"U","ELEMENT_SET_NO":"999","EPOCH":"2022-05-28T20:59:31.737696","BSTAR":"0.00011615000000","MEAN_ELEMENT_THEORY":"SGP4","SITE":"AFETR","PERIAPSIS":"546.133","OBJECT_TYPE":"PAYLOAD","EPHEMERIS_TYPE":"0","APOAPSIS":"548.258","TLE_LINE2":"2 44969  53.0563  25.3436 0001534  76.7095 283.4065 15.06405928132280","COUNTRY_CODE":"US","MEAN_ANOMALY":"283.4065","SEMIMAJOR_AXIS":"6925.330","OBJECT_ID":"2020-001BH","TIME_SYSTEM":"UTC","INCLINATION":"53.0563","ARG_OF_PERICENTER":"76.7095","FILE":"3469840","GP_ID":"204801161","MEAN_MOTION_DOT":"0.00001449","REV_AT_EPOCH":"13228","DECAY_DATE":null,"REF_FRAME":"TEME","RCS_SIZE":"LARGE"},{"TLE_LINE1":"1 44970U 20001BJ  22148.91891983  .00033000  00000-0  22324-2 0  9993","RA_OF_ASC_NODE":"25.1340","MEAN_MOTION_DDOT":"0.0000000000000","OBJECT_NAME":"STARLINK-1093","ECCENTRICITY":"0.00021970","MEAN_MOTION":"15.06258335","LAUNCH_DATE":"2020-01-07","PERIOD":"95.601","PERIAPSIS":"546.126","OBJECT_TYPE":"PAYLOAD","SITE":"AFETR","TLE_LINE2":"2 44970  53.0557  25.1340 0002197  95.2420 264.8819 15.06258335132289","COUNTRY_CODE":"US","APOAPSIS":"549.169","EPHEMERIS_TYPE":"0","CENTER_NAME":"EARTH","CLASSIFICATION_TYPE":"U","NORAD_CAT_ID":"44970","BSTAR":"0.00223240000000","MEAN_ELEMENT_THEORY":"SGP4","EPOCH":"2022-05-28T22:03:14.673312","ELEMENT_SET_NO":"999","SEMIMAJOR_AXIS":"6925.783","OBJECT_ID":"2020-001BJ","TIME_SYSTEM":"UTC","INCLINATION":"53.0557","MEAN_ANOMALY":"264.8819","DECAY_DATE":null,"REV_AT_EPOCH":"13228","MEAN_MOTION_DOT":"0.00033000","RCS_SIZE":"LARGE","REF_FRAME":"TEME","FILE":"3469840","ARG_OF_PERICENTER":"95.2420","GP_ID":"204801912"},{"NORAD_CAT_ID":"44972","CLASSIFICATION_TYPE":"U","CENTER_NAME":"EARTH","ELEMENT_SET_NO":"999","EPOCH":"2022-05-28T21:20:46.135104","MEAN_ELEMENT_THEORY":"SGP4","BSTAR":"0.00008303800000","SITE":"AFETR","PERIAPSIS":"545.993","OBJECT_TYPE":"PAYLOAD","EPHEMERIS_TYPE":"0","APOAPSIS":"548.375","TLE_LINE2":"2 44972  53.0566  25.2826 0001720  76.0440 284.0740 15.06409573132291","COUNTRY_CODE":"US","LAUNCH_DATE":"2020-01-07","PERIOD":"95.592","MEAN_MOTION_DDOT":"0.0000000000000","OBJECT_NAME":"STARLINK-1107","ECCENTRICITY":"0.00017200","TLE_LINE1":"1 44972U 20001BL  22148.88942286  .00000956  00000-0  83038-4 0  9999","RA_OF_ASC_NODE":"25.2826","MEAN_MOTION":"15.06409573","ARG_OF_PERICENTER":"76.0440","FILE":"3469840","GP_ID":"204802163","MEAN_MOTION_DOT":"0.00000956","REV_AT_EPOCH":"13229","DECAY_DATE":null,"RCS_SIZE":"LARGE","REF_FRAME":"TEME","MEAN_ANOMALY":"284.0740","SEMIMAJOR_AXIS":"6925.319","INCLINATION":"53.0566","TIME_SYSTEM":"UTC","OBJECT_ID":"2020-001BL"},{"LAUNCH_DATE":"2020-01-07","PERIOD":"95.592","RA_OF_ASC_NODE":"25.0786","TLE_LINE1":"1 44973U 20001BM  22148.93365277  .00001025  00000-0  87740-4 0  9997","MEAN_MOTION_DDOT":"0.0000000000000","ECCENTRICITY":"0.00017510","OBJECT_NAME":"STARLINK-1115","MEAN_MOTION":"15.06398319","CENTER_NAME":"EARTH","NORAD_CAT_ID":"44973","CLASSIFICATION_TYPE":"U","ELEMENT_SET_NO":"999","EPOCH":"2022-05-28T22:24:27.599328","BSTAR":"0.00008774000000","MEAN_ELEMENT_THEORY":"SGP4","SITE":"AFETR","PERIAPSIS":"546.006","OBJECT_TYPE":"PAYLOAD","EPHEMERIS_TYPE":"0","APOAPSIS":"548.431","TLE_LINE2":"2 44973  53.0552  25.0786 0001751  58.6674 301.4486 15.06398319132295","COUNTRY_CODE":"US","MEAN_ANOMALY":"301.4486","SEMIMAJOR_AXIS":"6925.354","OBJECT_ID":"2020-001BM","INCLINATION":"53.0552","TIME_SYSTEM":"UTC","ARG_OF_PERICENTER":"58.6674","FILE":"3469840","GP_ID":"204802408","MEAN_MOTION_DOT":"0.00001025","REV_AT_EPOCH":"13229","DECAY_DATE":null,"REF_FRAME":"TEME","RCS_SIZE":"LARGE"},{"CENTER_NAME":"EARTH","NORAD_CAT_ID":"45044","CLASSIFICATION_TYPE":"U","EPOCH":"2022-05-28T20:11:45.792672","ELEMENT_SET_NO":"999","BSTAR":"0.00024828000000","MEAN_ELEMENT_THEORY":"SGP4","SITE":"AFETR","OBJECT_TYPE":"PAYLOAD","PERIAPSIS":"545.800","EPHEMERIS_TYPE":"0","APOAPSIS":"548.656","TLE_LINE2":"2 45044  53.0553 345.4988 0002062  52.9526 307.1651 15.06395140128615","COUNTRY_CODE":"US","LAUNCH_DATE":"2020-01-29","PERIOD":"95.592","TLE_LINE1":"1 45044U 20006A   22148.84150223  .00003418  00000-0  24828-3 0  9990","RA_OF_ASC_NODE":"345.4988","ECCENTRICITY":"0.00020620","MEAN_MOTION_DDOT":"0.0000000000000","OBJECT_NAME":"STARLINK-1132","MEAN_MOTION":"15.06395140","ARG_OF_PERICENTER":"52.9526","FILE":"3469840","GP_ID":"204802915","MEAN_MOTION_DOT":"0.00003418","REV_AT_EPOCH":"12861","DECAY_DATE":null,"RCS_SIZE":"LARGE","REF_FRAME":"TEME","MEAN_ANOMALY":"307.1651","SEMIMAJOR_AXIS":"6925.363","OBJECT_ID":"2020-006A","TIME_SYSTEM":"UTC","INCLINATION":"53.0553"},{"OBJECT_ID":"2020-006B","INCLINATION":"53.0561","TIME_SYSTEM":"UTC","SEMIMAJOR_AXIS":"6925.349","MEAN_ANOMALY":"307.1091","REF_FRAME":"TEME","RCS_SIZE":"LARGE","REV_AT_EPOCH":"12834","MEAN_MOTION_DOT":"0.00000337","DECAY_DATE":null,"GP_ID":"204801168","ARG_OF_PERICENTER":"53.0038","FILE":"3469840","MEAN_MOTION":"15.06399828","TLE_LINE1":"1 45045U 20006B   22148.89495226  .00000337  00000-0  41517-4 0  9993","RA_OF_ASC_NODE":"5.2422","MEAN_MOTION_DDOT":"0.0000000000000","ECCENTRICITY":"0.00015300","OBJECT_NAME":"STARLINK-1120","PERIOD":"95.592","LAUNCH_DATE":"2020-01-29","APOAPSIS":"548.274","EPHEMERIS_TYPE":"0","COUNTRY_CODE":"US","TLE_LINE2":"2 45045  53.0561   5.2422 0001530  53.0038 307.1091 15.06399828128343","SITE":"AFETR","OBJECT_TYPE":"PAYLOAD","PERIAPSIS":"546.155","ELEMENT_SET_NO":"999","EPOCH":"2022-05-28T21:28:43.875264","BSTAR":"0.00004151700000","MEAN_ELEMENT_THEORY":"SGP4","CENTER_NAME":"EARTH","NORAD_CAT_ID":"45045","CLASSIFICATION_TYPE":"U"},{"RA_OF_ASC_NODE":"354.7849","TLE_LINE1":"1 45046U 20006C   22148.82994945  .00019718  00000-0  10775-2 0  9992","ECCENTRICITY":"0.00014240","MEAN_MOTION_DDOT":"0.0000000000000","OBJECT_NAME":"STARLINK-1129","MEAN_MOTION":"15.14313054","LAUNCH_DATE":"2020-01-29","PERIOD":"95.093","SITE":"AFETR","PERIAPSIS":"522.084","OBJECT_TYPE":"PAYLOAD","EPHEMERIS_TYPE":"0","APOAPSIS":"524.050","COUNTRY_CODE":"US","TLE_LINE2":"2 45046  52.9956 354.7849 0001424 134.9494 225.1613 15.14313054128448","CENTER_NAME":"EARTH","NORAD_CAT_ID":"45046","CLASSIFICATION_TYPE":"U","ELEMENT_SET_NO":"999","EPOCH":"2022-05-28T19:55:07.632480","BSTAR":"0.00107750000000","MEAN_ELEMENT_THEORY":"SGP4","SEMIMAJOR_AXIS":"6901.202","OBJECT_ID":"2020-006C","TIME_SYSTEM":"UTC","INCLINATION":"52.9956","MEAN_ANOMALY":"225.1613","REV_AT_EPOCH":"12844","MEAN_MOTION_DOT":"0.00019718","DECAY_DATE":null,"REF_FRAME":"TEME","RCS_SIZE":"LARGE","ARG_OF_PERICENTER":"134.9494","FILE":"3469840","GP_ID":"204801919"},{"REV_AT_EPOCH":"12834","MEAN_MOTION_DOT":"0.00001270","DECAY_DATE":null,"RCS_SIZE":"LARGE","REF_FRAME":"TEME","ARG_OF_PERICENTER":"61.7823","FILE":"3469840","GP_ID":"204802170","SEMIMAJOR_AXIS":"6925.302","OBJECT_ID":"2020-006D","TIME_SYSTEM":"UTC","INCLINATION":"53.0563","MEAN_ANOMALY":"298.3340","SITE":"AFETR","PERIAPSIS":"545.973","OBJECT_TYPE":"PAYLOAD","APOAPSIS":"548.360","EPHEMERIS_TYPE":"0","COUNTRY_CODE":"US","TLE_LINE2":"2 45047  53.0563   5.2334 0001724  61.7823 298.3340 15.06415334128341","CENTER_NAME":"EARTH","NORAD_CAT_ID":"45047","CLASSIFICATION_TYPE":"U","EPOCH":"2022-05-28T21:34:02.226432","ELEMENT_SET_NO":"999","MEAN_ELEMENT_THEORY":"SGP4","BSTAR":"0.00010411000000","RA_OF_ASC_NODE":"5.2334","TLE_LINE1":"1 45047U 20006D   22148.89863688  .00001270  00000-0  10411-3 0  9991","MEAN_MOTION_DDOT":"0.0000000000000","ECCENTRICITY":"0.00017240","OBJECT_NAME":"STARLINK-1131","MEAN_MOTION":"15.06415334","LAUNCH_DATE":"2020-01-29","PERIOD":"95.591"},{"ELEMENT_SET_NO":"999","EPOCH":"2022-05-28T21:44:38.886432","MEAN_ELEMENT_THEORY":"SGP4","BSTAR":"0.00013560000000","NORAD_CAT_ID":"45048","CLASSIFICATION_TYPE":"U","CENTER_NAME":"EARTH","APOAPSIS":"548.369","EPHEMERIS_TYPE":"0","COUNTRY_CODE":"US","TLE_LINE2":"2 45048  53.0553   5.1871 0001708  87.8704 272.2481 15.06408833128348","SITE":"AFETR","OBJECT_TYPE":"PAYLOAD","PERIAPSIS":"546.004","PERIOD":"95.592","LAUNCH_DATE":"2020-01-29","MEAN_MOTION":"15.06408833","ECCENTRICITY":"0.00017080","MEAN_MOTION_DDOT":"0.0000000000000","OBJECT_NAME":"STARLINK-1134","RA_OF_ASC_NODE":"5.1871","TLE_LINE1":"1 45048U 20006E   22148.90600563  .00001739  00000-0  13560-3 0  9993","GP_ID":"204802415","ARG_OF_PERICENTER":"87.8704","FILE":"3469840","REF_FRAME":"TEME","RCS_SIZE":"LARGE","REV_AT_EPOCH":"12834","MEAN_MOTION_DOT":"0.00001739","DECAY_DATE":null,"MEAN_ANOMALY":"272.2481","INCLINATION":"53.0553","TIME_SYSTEM":"UTC","OBJECT_ID":"2020-006E","SEMIMAJOR_AXIS":"6925.321"}];
